{"type":"FeatureCollection","features":[{"type":"Feature","properties":{"nom":"Bourg-en-Bresse","rank":3,"dept":"01"},"geometry":{"type":"Point","coordinates":[5.2469,46.2027]}},{"type":"Feature","properties":{"nom":"Oyonnax","rank":4,"dept":"01"},"geometry":{"type":"Point","coordinates":[5.6517,46.2599]}},{"type":"Feature","properties":{"nom":"Laon","rank":3,"dept":"02"},"geometry":{"type":"Point","coordinates":[3.613,49.5711]}},{"type":"Feature","properties":{"nom":"Saint-Quentin","rank":4,"dept":"02"},"geometry":{"type":"Point","coordinates":[3.279,49.8475]}},{"type":"Feature","properties":{"nom":"Soissons","rank":4,"dept":"02"},"geometry":{"type":"Point","coordinates":[3.3235,49.3766]}},{"type":"Feature","properties":{"nom":"Montluçon","rank":4,"dept":"03"},"geometry":{"type":"Point","coordinates":[2.608,46.3428]}},{"type":"Feature","properties":{"nom":"Moulins","rank":3,"dept":"03"},"geometry":{"type":"Point","coordinates":[3.3255,46.5591]}},{"type":"Feature","properties":{"nom":"Vichy","rank":4,"dept":"03"},"geometry":{"type":"Point","coordinates":[3.4254,46.1318]}},{"type":"Feature","properties":{"nom":"Digne-les-Bains","rank":3,"dept":"04"},"geometry":{"type":"Point","coordinates":[6.2495,44.0954]}},{"type":"Feature","properties":{"nom":"Manosque","rank":4,"dept":"04"},"geometry":{"type":"Point","coordinates":[5.7896,43.8293]}},{"type":"Feature","properties":{"nom":"Gap","rank":3,"dept":"05"},"geometry":{"type":"Point","coordinates":[6.0616,44.5797]}},{"type":"Feature","properties":{"nom":"Antibes","rank":4,"dept":"06"},"geometry":{"type":"Point","coordinates":[7.1048,43.5823]}},{"type":"Feature","properties":{"nom":"Cagnes-sur-Mer","rank":4,"dept":"06"},"geometry":{"type":"Point","coordinates":[7.1502,43.6712]}},{"type":"Feature","properties":{"nom":"Cannes","rank":4,"dept":"06"},"geometry":{"type":"Point","coordinates":[7.0152,43.5454]}},{"type":"Feature","properties":{"nom":"Le Cannet","rank":4,"dept":"06"},"geometry":{"type":"Point","coordinates":[7.001,43.5745]}},{"type":"Feature","properties":{"nom":"Grasse","rank":4,"dept":"06"},"geometry":{"type":"Point","coordinates":[6.937,43.656]}},{"type":"Feature","properties":{"nom":"Mandelieu-la-Napoule","rank":4,"dept":"06"},"geometry":{"type":"Point","coordinates":[6.918,43.5334]}},{"type":"Feature","properties":{"nom":"Menton","rank":4,"dept":"06"},"geometry":{"type":"Point","coordinates":[7.498,43.7961]}},{"type":"Feature","properties":{"nom":"Nice","rank":1,"dept":"06"},"geometry":{"type":"Point","coordinates":[7.2528,43.7032]}},{"type":"Feature","properties":{"nom":"Saint-Laurent-du-Var","rank":4,"dept":"06"},"geometry":{"type":"Point","coordinates":[7.1822,43.6865]}},{"type":"Feature","properties":{"nom":"Vallauris","rank":4,"dept":"06"},"geometry":{"type":"Point","coordinates":[7.0604,43.5787]}},{"type":"Feature","properties":{"nom":"Privas","rank":3,"dept":"07"},"geometry":{"type":"Point","coordinates":[4.5949,44.7214]}},{"type":"Feature","properties":{"nom":"Charleville-Mézières","rank":3,"dept":"08"},"geometry":{"type":"Point","coordinates":[4.7304,49.7802]}},{"type":"Feature","properties":{"nom":"Foix","rank":3,"dept":"09"},"geometry":{"type":"Point","coordinates":[1.609,42.9701]}},{"type":"Feature","properties":{"nom":"Troyes","rank":3,"dept":"10"},"geometry":{"type":"Point","coordinates":[4.0761,48.2924]}},{"type":"Feature","properties":{"nom":"Carcassonne","rank":3,"dept":"11"},"geometry":{"type":"Point","coordinates":[2.3491,43.2078]}},{"type":"Feature","properties":{"nom":"Narbonne","rank":4,"dept":"11"},"geometry":{"type":"Point","coordinates":[3.0337,43.1493]}},{"type":"Feature","properties":{"nom":"Millau","rank":4,"dept":"12"},"geometry":{"type":"Point","coordinates":[3.1176,44.0982]}},{"type":"Feature","properties":{"nom":"Rodez","rank":3,"dept":"12"},"geometry":{"type":"Point","coordinates":[2.5699,44.3591]}},{"type":"Feature","properties":{"nom":"Aix-en-Provence","rank":4,"dept":"13"},"geometry":{"type":"Point","coordinates":[5.3879,43.536]}},{"type":"Feature","properties":{"nom":"Allauch","rank":4,"dept":"13"},"geometry":{"type":"Point","coordinates":[5.5103,43.3522]}},{"type":"Feature","properties":{"nom":"Arles","rank":4,"dept":"13"},"geometry":{"type":"Point","coordinates":[4.6513,43.5441]}},{"type":"Feature","properties":{"nom":"Aubagne","rank":4,"dept":"13"},"geometry":{"type":"Point","coordinates":[5.5643,43.2904]}},{"type":"Feature","properties":{"nom":"La Ciotat","rank":4,"dept":"13"},"geometry":{"type":"Point","coordinates":[5.6175,43.1882]}},{"type":"Feature","properties":{"nom":"Gardanne","rank":4,"dept":"13"},"geometry":{"type":"Point","coordinates":[5.4857,43.4585]}},{"type":"Feature","properties":{"nom":"Istres","rank":4,"dept":"13"},"geometry":{"type":"Point","coordinates":[4.9477,43.5455]}},{"type":"Feature","properties":{"nom":"Marignane","rank":4,"dept":"13"},"geometry":{"type":"Point","coordinates":[5.2178,43.4218]}},{"type":"Feature","properties":{"nom":"Marseille","rank":1,"dept":"13"},"geometry":{"type":"Point","coordinates":[5.3806,43.2803]}},{"type":"Feature","properties":{"nom":"Martigues","rank":4,"dept":"13"},"geometry":{"type":"Point","coordinates":[5.0451,43.3839]}},{"type":"Feature","properties":{"nom":"Miramas","rank":4,"dept":"13"},"geometry":{"type":"Point","coordinates":[5.0148,43.5841]}},{"type":"Feature","properties":{"nom":"Les Pennes-Mirabeau","rank":4,"dept":"13"},"geometry":{"type":"Point","coordinates":[5.3222,43.4005]}},{"type":"Feature","properties":{"nom":"Salon-de-Provence","rank":4,"dept":"13"},"geometry":{"type":"Point","coordinates":[5.049,43.643]}},{"type":"Feature","properties":{"nom":"Vitrolles","rank":4,"dept":"13"},"geometry":{"type":"Point","coordinates":[5.2656,43.4509]}},{"type":"Feature","properties":{"nom":"Caen","rank":3,"dept":"14"},"geometry":{"type":"Point","coordinates":[-0.3722,49.1846]}},{"type":"Feature","properties":{"nom":"Hérouville-Saint-Clair","rank":4,"dept":"14"},"geometry":{"type":"Point","coordinates":[-0.3324,49.2042]}},{"type":"Feature","properties":{"nom":"Aurillac","rank":3,"dept":"15"},"geometry":{"type":"Point","coordinates":[2.4416,44.9281]}},{"type":"Feature","properties":{"nom":"Angoulême","rank":3,"dept":"16"},"geometry":{"type":"Point","coordinates":[0.145,45.6458]}},{"type":"Feature","properties":{"nom":"Rochefort","rank":4,"dept":"17"},"geometry":{"type":"Point","coordinates":[-0.9745,45.9455]}},{"type":"Feature","properties":{"nom":"La Rochelle","rank":3,"dept":"17"},"geometry":{"type":"Point","coordinates":[-1.1765,46.162]}},{"type":"Feature","properties":{"nom":"Saintes","rank":4,"dept":"17"},"geometry":{"type":"Point","coordinates":[-0.6456,45.7462]}},{"type":"Feature","properties":{"nom":"Bourges","rank":3,"dept":"18"},"geometry":{"type":"Point","coordinates":[2.3983,47.078]}},{"type":"Feature","properties":{"nom":"Vierzon","rank":4,"dept":"18"},"geometry":{"type":"Point","coordinates":[2.0776,47.2351]}},{"type":"Feature","properties":{"nom":"Brive-la-Gaillarde","rank":4,"dept":"19"},"geometry":{"type":"Point","coordinates":[1.5144,45.145]}},{"type":"Feature","properties":{"nom":"Tulle","rank":3,"dept":"19"},"geometry":{"type":"Point","coordinates":[1.7663,45.2685]}},{"type":"Feature","properties":{"nom":"Beaune","rank":4,"dept":"21"},"geometry":{"type":"Point","coordinates":[4.8421,47.0272]}},{"type":"Feature","properties":{"nom":"Dijon","rank":3,"dept":"21"},"geometry":{"type":"Point","coordinates":[5.0322,47.3319]}},{"type":"Feature","properties":{"nom":"Lannion","rank":4,"dept":"22"},"geometry":{"type":"Point","coordinates":[-3.4697,48.7454]}},{"type":"Feature","properties":{"nom":"Saint-Brieuc","rank":3,"dept":"22"},"geometry":{"type":"Point","coordinates":[-2.7657,48.5108]}},{"type":"Feature","properties":{"nom":"Guéret","rank":3,"dept":"23"},"geometry":{"type":"Point","coordinates":[1.8705,46.1585]}},{"type":"Feature","properties":{"nom":"Bergerac","rank":4,"dept":"24"},"geometry":{"type":"Point","coordinates":[0.4883,44.8519]}},{"type":"Feature","properties":{"nom":"Périgueux","rank":3,"dept":"24"},"geometry":{"type":"Point","coordinates":[0.7105,45.1939]}},{"type":"Feature","properties":{"nom":"Besançon","rank":3,"dept":"25"},"geometry":{"type":"Point","coordinates":[6.0123,47.2602]}},{"type":"Feature","properties":{"nom":"Montbéliard","rank":4,"dept":"25"},"geometry":{"type":"Point","coordinates":[6.7834,47.5168]}},{"type":"Feature","properties":{"nom":"Montélimar","rank":4,"dept":"26"},"geometry":{"type":"Point","coordinates":[4.7454,44.5545]}},{"type":"Feature","properties":{"nom":"Romans-sur-Isère","rank":4,"dept":"26"},"geometry":{"type":"Point","coordinates":[5.0477,45.0611]}},{"type":"Feature","properties":{"nom":"Valence","rank":3,"dept":"26"},"geometry":{"type":"Point","coordinates":[4.9164,44.9234]}},{"type":"Feature","properties":{"nom":"Évreux","rank":3,"dept":"27"},"geometry":{"type":"Point","coordinates":[1.1406,49.018]}},{"type":"Feature","properties":{"nom":"Vernon","rank":4,"dept":"27"},"geometry":{"type":"Point","coordinates":[1.4827,49.0921]}},{"type":"Feature","properties":{"nom":"Chartres","rank":3,"dept":"28"},"geometry":{"type":"Point","coordinates":[1.5046,48.4481]}},{"type":"Feature","properties":{"nom":"Dreux","rank":4,"dept":"28"},"geometry":{"type":"Point","coordinates":[1.3578,48.7482]}},{"type":"Feature","properties":{"nom":"Brest","rank":4,"dept":"29"},"geometry":{"type":"Point","coordinates":[-4.4996,48.4085]}},{"type":"Feature","properties":{"nom":"Concarneau","rank":4,"dept":"29"},"geometry":{"type":"Point","coordinates":[-3.8993,47.8977]}},{"type":"Feature","properties":{"nom":"Quimper","rank":3,"dept":"29"},"geometry":{"type":"Point","coordinates":[-4.0972,47.9982]}},{"type":"Feature","properties":{"nom":"Ajaccio","rank":3,"dept":"2A"},"geometry":{"type":"Point","coordinates":[8.7058,41.9228]}},{"type":"Feature","properties":{"nom":"Bastia","rank":3,"dept":"2B"},"geometry":{"type":"Point","coordinates":[9.424,42.6861]}},{"type":"Feature","properties":{"nom":"Alès","rank":4,"dept":"30"},"geometry":{"type":"Point","coordinates":[4.0905,44.125]}},{"type":"Feature","properties":{"nom":"Nîmes","rank":3,"dept":"30"},"geometry":{"type":"Point","coordinates":[4.3429,43.8322]}},{"type":"Feature","properties":{"nom":"Blagnac","rank":4,"dept":"31"},"geometry":{"type":"Point","coordinates":[1.377,43.641]}},{"type":"Feature","properties":{"nom":"Colomiers","rank":4,"dept":"31"},"geometry":{"type":"Point","coordinates":[1.3245,43.6116]}},{"type":"Feature","properties":{"nom":"Cugnaux","rank":4,"dept":"31"},"geometry":{"type":"Point","coordinates":[1.3432,43.5446]}},{"type":"Feature","properties":{"nom":"Muret","rank":4,"dept":"31"},"geometry":{"type":"Point","coordinates":[1.2987,43.4407]}},{"type":"Feature","properties":{"nom":"Plaisance-du-Touch","rank":4,"dept":"31"},"geometry":{"type":"Point","coordinates":[1.2833,43.5626]}},{"type":"Feature","properties":{"nom":"Toulouse","rank":1,"dept":"31"},"geometry":{"type":"Point","coordinates":[1.4328,43.6007]}},{"type":"Feature","properties":{"nom":"Tournefeuille","rank":4,"dept":"31"},"geometry":{"type":"Point","coordinates":[1.3338,43.5747]}},{"type":"Feature","properties":{"nom":"Auch","rank":3,"dept":"32"},"geometry":{"type":"Point","coordinates":[0.5673,43.6602]}},{"type":"Feature","properties":{"nom":"Bègles","rank":4,"dept":"33"},"geometry":{"type":"Point","coordinates":[-0.5485,44.803]}},{"type":"Feature","properties":{"nom":"Bordeaux","rank":1,"dept":"33"},"geometry":{"type":"Point","coordinates":[-0.5848,44.8624]}},{"type":"Feature","properties":{"nom":"Le Bouscat","rank":4,"dept":"33"},"geometry":{"type":"Point","coordinates":[-0.6033,44.865]}},{"type":"Feature","properties":{"nom":"Bruges","rank":4,"dept":"33"},"geometry":{"type":"Point","coordinates":[-0.6029,44.8893]}},{"type":"Feature","properties":{"nom":"Cenon","rank":4,"dept":"33"},"geometry":{"type":"Point","coordinates":[-0.5223,44.8552]}},{"type":"Feature","properties":{"nom":"Eysines","rank":4,"dept":"33"},"geometry":{"type":"Point","coordinates":[-0.646,44.8779]}},{"type":"Feature","properties":{"nom":"Gradignan","rank":4,"dept":"33"},"geometry":{"type":"Point","coordinates":[-0.6163,44.7681]}},{"type":"Feature","properties":{"nom":"Gujan-Mestras","rank":4,"dept":"33"},"geometry":{"type":"Point","coordinates":[-1.0813,44.5758]}},{"type":"Feature","properties":{"nom":"Libourne","rank":4,"dept":"33"},"geometry":{"type":"Point","coordinates":[-0.2328,44.9125]}},{"type":"Feature","properties":{"nom":"Lormont","rank":4,"dept":"33"},"geometry":{"type":"Point","coordinates":[-0.5176,44.8749]}},{"type":"Feature","properties":{"nom":"Mérignac","rank":4,"dept":"33"},"geometry":{"type":"Point","coordinates":[-0.682,44.8313]}},{"type":"Feature","properties":{"nom":"Pessac","rank":4,"dept":"33"},"geometry":{"type":"Point","coordinates":[-0.681,44.786]}},{"type":"Feature","properties":{"nom":"Saint-Médard-en-Jalles","rank":4,"dept":"33"},"geometry":{"type":"Point","coordinates":[-0.7823,44.8861]}},{"type":"Feature","properties":{"nom":"Talence","rank":4,"dept":"33"},"geometry":{"type":"Point","coordinates":[-0.5918,44.8061]}},{"type":"Feature","properties":{"nom":"La Teste-de-Buch","rank":4,"dept":"33"},"geometry":{"type":"Point","coordinates":[-1.1809,44.586]}},{"type":"Feature","properties":{"nom":"Villenave-d'Ornon","rank":4,"dept":"33"},"geometry":{"type":"Point","coordinates":[-0.5523,44.7736]}},{"type":"Feature","properties":{"nom":"Agde","rank":4,"dept":"34"},"geometry":{"type":"Point","coordinates":[3.4838,43.3084]}},{"type":"Feature","properties":{"nom":"Béziers","rank":4,"dept":"34"},"geometry":{"type":"Point","coordinates":[3.2342,43.3481]}},{"type":"Feature","properties":{"nom":"Castelnau-le-Lez","rank":4,"dept":"34"},"geometry":{"type":"Point","coordinates":[3.9113,43.6372]}},{"type":"Feature","properties":{"nom":"Frontignan","rank":4,"dept":"34"},"geometry":{"type":"Point","coordinates":[3.7493,43.4486]}},{"type":"Feature","properties":{"nom":"Lunel","rank":4,"dept":"34"},"geometry":{"type":"Point","coordinates":[4.1329,43.678]}},{"type":"Feature","properties":{"nom":"Montpellier","rank":1,"dept":"34"},"geometry":{"type":"Point","coordinates":[3.8742,43.61]}},{"type":"Feature","properties":{"nom":"Sète","rank":4,"dept":"34"},"geometry":{"type":"Point","coordinates":[3.6441,43.3844]}},{"type":"Feature","properties":{"nom":"Fougères","rank":4,"dept":"35"},"geometry":{"type":"Point","coordinates":[-1.1953,48.3512]}},{"type":"Feature","properties":{"nom":"Rennes","rank":3,"dept":"35"},"geometry":{"type":"Point","coordinates":[-1.6884,48.1159]}},{"type":"Feature","properties":{"nom":"Saint-Malo","rank":4,"dept":"35"},"geometry":{"type":"Point","coordinates":[-2.0066,48.6465]}},{"type":"Feature","properties":{"nom":"Châteauroux","rank":3,"dept":"36"},"geometry":{"type":"Point","coordinates":[1.6903,46.8023]}},{"type":"Feature","properties":{"nom":"Joué-lès-Tours","rank":4,"dept":"37"},"geometry":{"type":"Point","coordinates":[0.6544,47.3374]}},{"type":"Feature","properties":{"nom":"Tours","rank":3,"dept":"37"},"geometry":{"type":"Point","coordinates":[0.6949,47.3943]}},{"type":"Feature","properties":{"nom":"Bourgoin-Jallieu","rank":4,"dept":"38"},"geometry":{"type":"Point","coordinates":[5.2747,45.6025]}},{"type":"Feature","properties":{"nom":"Échirolles","rank":4,"dept":"38"},"geometry":{"type":"Point","coordinates":[5.7148,45.1441]}},{"type":"Feature","properties":{"nom":"Fontaine","rank":4,"dept":"38"},"geometry":{"type":"Point","coordinates":[5.6763,45.194]}},{"type":"Feature","properties":{"nom":"Grenoble","rank":3,"dept":"38"},"geometry":{"type":"Point","coordinates":[5.7155,45.1842]}},{"type":"Feature","properties":{"nom":"Saint-Martin-d'Hères","rank":4,"dept":"38"},"geometry":{"type":"Point","coordinates":[5.7646,45.1782]}},{"type":"Feature","properties":{"nom":"Vienne","rank":4,"dept":"38"},"geometry":{"type":"Point","coordinates":[4.8803,45.5221]}},{"type":"Feature","properties":{"nom":"Voiron","rank":4,"dept":"38"},"geometry":{"type":"Point","coordinates":[5.5869,45.3805]}},{"type":"Feature","properties":{"nom":"Dole","rank":4,"dept":"39"},"geometry":{"type":"Point","coordinates":[5.5024,47.0739]}},{"type":"Feature","properties":{"nom":"Lons-le-Saunier","rank":3,"dept":"39"},"geometry":{"type":"Point","coordinates":[5.5574,46.6758]}},{"type":"Feature","properties":{"nom":"Dax","rank":4,"dept":"40"},"geometry":{"type":"Point","coordinates":[-1.0637,43.7025]}},{"type":"Feature","properties":{"nom":"Mont-de-Marsan","rank":3,"dept":"40"},"geometry":{"type":"Point","coordinates":[-0.5009,43.8931]}},{"type":"Feature","properties":{"nom":"Blois","rank":3,"dept":"41"},"geometry":{"type":"Point","coordinates":[1.3049,47.5813]}},{"type":"Feature","properties":{"nom":"Roanne","rank":4,"dept":"42"},"geometry":{"type":"Point","coordinates":[4.0797,46.0443]}},{"type":"Feature","properties":{"nom":"Saint-Chamond","rank":4,"dept":"42"},"geometry":{"type":"Point","coordinates":[4.5082,45.4687]}},{"type":"Feature","properties":{"nom":"Saint-Étienne","rank":3,"dept":"42"},"geometry":{"type":"Point","coordinates":[4.3665,45.4241]}},{"type":"Feature","properties":{"nom":"Le Puy-en-Velay","rank":3,"dept":"43"},"geometry":{"type":"Point","coordinates":[3.8973,45.0283]}},{"type":"Feature","properties":{"nom":"Bouguenais","rank":4,"dept":"44"},"geometry":{"type":"Point","coordinates":[-1.6181,47.171]}},{"type":"Feature","properties":{"nom":"Carquefou","rank":4,"dept":"44"},"geometry":{"type":"Point","coordinates":[-1.4687,47.2968]}},{"type":"Feature","properties":{"nom":"La Chapelle-sur-Erdre","rank":4,"dept":"44"},"geometry":{"type":"Point","coordinates":[-1.5621,47.3041]}},{"type":"Feature","properties":{"nom":"Couëron","rank":4,"dept":"44"},"geometry":{"type":"Point","coordinates":[-1.7472,47.2391]}},{"type":"Feature","properties":{"nom":"Nantes","rank":1,"dept":"44"},"geometry":{"type":"Point","coordinates":[-1.5603,47.2382]}},{"type":"Feature","properties":{"nom":"Orvault","rank":4,"dept":"44"},"geometry":{"type":"Point","coordinates":[-1.6195,47.2745]}},{"type":"Feature","properties":{"nom":"Rezé","rank":4,"dept":"44"},"geometry":{"type":"Point","coordinates":[-1.5573,47.1733]}},{"type":"Feature","properties":{"nom":"Saint-Herblain","rank":4,"dept":"44"},"geometry":{"type":"Point","coordinates":[-1.6306,47.2246]}},{"type":"Feature","properties":{"nom":"Saint-Nazaire","rank":4,"dept":"44"},"geometry":{"type":"Point","coordinates":[-2.2392,47.2768]}},{"type":"Feature","properties":{"nom":"Saint-Sébastien-sur-Loire","rank":4,"dept":"44"},"geometry":{"type":"Point","coordinates":[-1.5023,47.2065]}},{"type":"Feature","properties":{"nom":"Vertou","rank":4,"dept":"44"},"geometry":{"type":"Point","coordinates":[-1.4679,47.1532]}},{"type":"Feature","properties":{"nom":"Fleury-les-Aubrais","rank":4,"dept":"45"},"geometry":{"type":"Point","coordinates":[1.9223,47.9449]}},{"type":"Feature","properties":{"nom":"Olivet","rank":4,"dept":"45"},"geometry":{"type":"Point","coordinates":[1.8913,47.8559]}},{"type":"Feature","properties":{"nom":"Orléans","rank":3,"dept":"45"},"geometry":{"type":"Point","coordinates":[1.9122,47.8734]}},{"type":"Feature","properties":{"nom":"Saint-Jean-de-Braye","rank":4,"dept":"45"},"geometry":{"type":"Point","coordinates":[1.9695,47.9216]}},{"type":"Feature","properties":{"nom":"Cahors","rank":3,"dept":"46"},"geometry":{"type":"Point","coordinates":[1.439,44.4565]}},{"type":"Feature","properties":{"nom":"Agen","rank":3,"dept":"47"},"geometry":{"type":"Point","coordinates":[0.6302,44.201]}},{"type":"Feature","properties":{"nom":"Villeneuve-sur-Lot","rank":4,"dept":"47"},"geometry":{"type":"Point","coordinates":[0.7484,44.4183]}},{"type":"Feature","properties":{"nom":"Mende","rank":3,"dept":"48"},"geometry":{"type":"Point","coordinates":[3.4909,44.5349]}},{"type":"Feature","properties":{"nom":"Angers","rank":3,"dept":"49"},"geometry":{"type":"Point","coordinates":[-0.5629,47.4819]}},{"type":"Feature","properties":{"nom":"Beaupréau-en-Mauges","rank":4,"dept":"49"},"geometry":{"type":"Point","coordinates":[-0.9844,47.2028]}},{"type":"Feature","properties":{"nom":"Chemillé-en-Anjou","rank":4,"dept":"49"},"geometry":{"type":"Point","coordinates":[-0.6964,47.2211]}},{"type":"Feature","properties":{"nom":"Cholet","rank":4,"dept":"49"},"geometry":{"type":"Point","coordinates":[-0.875,47.0358]}},{"type":"Feature","properties":{"nom":"Sèvremoine","rank":4,"dept":"49"},"geometry":{"type":"Point","coordinates":[-1.0968,47.0878]}},{"type":"Feature","properties":{"nom":"Saumur","rank":4,"dept":"49"},"geometry":{"type":"Point","coordinates":[-0.0837,47.2645]}},{"type":"Feature","properties":{"nom":"Cherbourg-en-Cotentin","rank":4,"dept":"50"},"geometry":{"type":"Point","coordinates":[-1.6356,49.6277]}},{"type":"Feature","properties":{"nom":"Saint-Lô","rank":3,"dept":"50"},"geometry":{"type":"Point","coordinates":[-1.0812,49.1123]}},{"type":"Feature","properties":{"nom":"Châlons-en-Champagne","rank":3,"dept":"51"},"geometry":{"type":"Point","coordinates":[4.3801,48.9656]}},{"type":"Feature","properties":{"nom":"Épernay","rank":4,"dept":"51"},"geometry":{"type":"Point","coordinates":[3.9282,49.0391]}},{"type":"Feature","properties":{"nom":"Reims","rank":4,"dept":"51"},"geometry":{"type":"Point","coordinates":[4.0551,49.2535]}},{"type":"Feature","properties":{"nom":"Chaumont","rank":3,"dept":"52"},"geometry":{"type":"Point","coordinates":[5.1566,48.0965]}},{"type":"Feature","properties":{"nom":"Saint-Dizier","rank":4,"dept":"52"},"geometry":{"type":"Point","coordinates":[4.9399,48.6319]}},{"type":"Feature","properties":{"nom":"Laval","rank":3,"dept":"53"},"geometry":{"type":"Point","coordinates":[-0.7692,48.0578]}},{"type":"Feature","properties":{"nom":"Nancy","rank":3,"dept":"54"},"geometry":{"type":"Point","coordinates":[6.1734,48.6881]}},{"type":"Feature","properties":{"nom":"Vandœuvre-lès-Nancy","rank":4,"dept":"54"},"geometry":{"type":"Point","coordinates":[6.1603,48.66]}},{"type":"Feature","properties":{"nom":"Bar-le-Duc","rank":3,"dept":"55"},"geometry":{"type":"Point","coordinates":[5.1732,48.7628]}},{"type":"Feature","properties":{"nom":"Lanester","rank":4,"dept":"56"},"geometry":{"type":"Point","coordinates":[-3.326,47.7686]}},{"type":"Feature","properties":{"nom":"Lorient","rank":4,"dept":"56"},"geometry":{"type":"Point","coordinates":[-3.3799,47.7494]}},{"type":"Feature","properties":{"nom":"Vannes","rank":3,"dept":"56"},"geometry":{"type":"Point","coordinates":[-2.7485,47.6577]}},{"type":"Feature","properties":{"nom":"Forbach","rank":4,"dept":"57"},"geometry":{"type":"Point","coordinates":[6.8985,49.1916]}},{"type":"Feature","properties":{"nom":"Metz","rank":3,"dept":"57"},"geometry":{"type":"Point","coordinates":[6.1962,49.1048]}},{"type":"Feature","properties":{"nom":"Montigny-lès-Metz","rank":4,"dept":"57"},"geometry":{"type":"Point","coordinates":[6.1548,49.0966]}},{"type":"Feature","properties":{"nom":"Sarreguemines","rank":4,"dept":"57"},"geometry":{"type":"Point","coordinates":[7.0709,49.106]}},{"type":"Feature","properties":{"nom":"Thionville","rank":4,"dept":"57"},"geometry":{"type":"Point","coordinates":[6.1443,49.3718]}},{"type":"Feature","properties":{"nom":"Nevers","rank":3,"dept":"58"},"geometry":{"type":"Point","coordinates":[3.1598,46.9852]}},{"type":"Feature","properties":{"nom":"Villeneuve-d'Ascq","rank":4,"dept":"59"},"geometry":{"type":"Point","coordinates":[3.1619,50.6362]}},{"type":"Feature","properties":{"nom":"Armentières","rank":4,"dept":"59"},"geometry":{"type":"Point","coordinates":[2.8787,50.6925]}},{"type":"Feature","properties":{"nom":"Cambrai","rank":4,"dept":"59"},"geometry":{"type":"Point","coordinates":[3.2413,50.1722]}},{"type":"Feature","properties":{"nom":"Coudekerque-Branche","rank":4,"dept":"59"},"geometry":{"type":"Point","coordinates":[2.3986,51.0183]}},{"type":"Feature","properties":{"nom":"Croix","rank":4,"dept":"59"},"geometry":{"type":"Point","coordinates":[3.155,50.6754]}},{"type":"Feature","properties":{"nom":"Denain","rank":4,"dept":"59"},"geometry":{"type":"Point","coordinates":[3.3922,50.329]}},{"type":"Feature","properties":{"nom":"Douai","rank":4,"dept":"59"},"geometry":{"type":"Point","coordinates":[3.1004,50.3785]}},{"type":"Feature","properties":{"nom":"Dunkerque","rank":4,"dept":"59"},"geometry":{"type":"Point","coordinates":[2.3431,51.0183]}},{"type":"Feature","properties":{"nom":"Grande-Synthe","rank":4,"dept":"59"},"geometry":{"type":"Point","coordinates":[2.2938,51.0157]}},{"type":"Feature","properties":{"nom":"Halluin","rank":4,"dept":"59"},"geometry":{"type":"Point","coordinates":[3.1257,50.7759]}},{"type":"Feature","properties":{"nom":"Hazebrouck","rank":4,"dept":"59"},"geometry":{"type":"Point","coordinates":[2.5357,50.7254]}},{"type":"Feature","properties":{"nom":"Lambersart","rank":4,"dept":"59"},"geometry":{"type":"Point","coordinates":[3.0248,50.6538]}},{"type":"Feature","properties":{"nom":"Lille","rank":1,"dept":"59"},"geometry":{"type":"Point","coordinates":[3.0468,50.6311]}},{"type":"Feature","properties":{"nom":"Loos","rank":4,"dept":"59"},"geometry":{"type":"Point","coordinates":[3.0215,50.6078]}},{"type":"Feature","properties":{"nom":"La Madeleine","rank":4,"dept":"59"},"geometry":{"type":"Point","coordinates":[3.0699,50.6541]}},{"type":"Feature","properties":{"nom":"Marcq-en-Barœul","rank":4,"dept":"59"},"geometry":{"type":"Point","coordinates":[3.1006,50.6793]}},{"type":"Feature","properties":{"nom":"Maubeuge","rank":4,"dept":"59"},"geometry":{"type":"Point","coordinates":[3.9611,50.2834]}},{"type":"Feature","properties":{"nom":"Mons-en-Barœul","rank":4,"dept":"59"},"geometry":{"type":"Point","coordinates":[3.1091,50.6436]}},{"type":"Feature","properties":{"nom":"Roubaix","rank":4,"dept":"59"},"geometry":{"type":"Point","coordinates":[3.1843,50.6887]}},{"type":"Feature","properties":{"nom":"Tourcoing","rank":4,"dept":"59"},"geometry":{"type":"Point","coordinates":[3.1577,50.721]}},{"type":"Feature","properties":{"nom":"Valenciennes","rank":4,"dept":"59"},"geometry":{"type":"Point","coordinates":[3.5142,50.362]}},{"type":"Feature","properties":{"nom":"Wasquehal","rank":4,"dept":"59"},"geometry":{"type":"Point","coordinates":[3.1296,50.6726]}},{"type":"Feature","properties":{"nom":"Wattrelos","rank":4,"dept":"59"},"geometry":{"type":"Point","coordinates":[3.2159,50.7125]}},{"type":"Feature","properties":{"nom":"Beauvais","rank":3,"dept":"60"},"geometry":{"type":"Point","coordinates":[2.0877,49.4425]}},{"type":"Feature","properties":{"nom":"Compiègne","rank":4,"dept":"60"},"geometry":{"type":"Point","coordinates":[2.8547,49.4006]}},{"type":"Feature","properties":{"nom":"Creil","rank":4,"dept":"60"},"geometry":{"type":"Point","coordinates":[2.4841,49.2557]}},{"type":"Feature","properties":{"nom":"Nogent-sur-Oise","rank":4,"dept":"60"},"geometry":{"type":"Point","coordinates":[2.4644,49.2764]}},{"type":"Feature","properties":{"nom":"Alençon","rank":3,"dept":"61"},"geometry":{"type":"Point","coordinates":[0.0923,48.431]}},{"type":"Feature","properties":{"nom":"Arras","rank":3,"dept":"62"},"geometry":{"type":"Point","coordinates":[2.7679,50.2893]}},{"type":"Feature","properties":{"nom":"Béthune","rank":4,"dept":"62"},"geometry":{"type":"Point","coordinates":[2.6438,50.5299]}},{"type":"Feature","properties":{"nom":"Boulogne-sur-Mer","rank":4,"dept":"62"},"geometry":{"type":"Point","coordinates":[1.6062,50.7303]}},{"type":"Feature","properties":{"nom":"Bruay-la-Buissière","rank":4,"dept":"62"},"geometry":{"type":"Point","coordinates":[2.5505,50.4891]}},{"type":"Feature","properties":{"nom":"Calais","rank":4,"dept":"62"},"geometry":{"type":"Point","coordinates":[1.869,50.9523]}},{"type":"Feature","properties":{"nom":"Hénin-Beaumont","rank":4,"dept":"62"},"geometry":{"type":"Point","coordinates":[2.9584,50.4189]}},{"type":"Feature","properties":{"nom":"Lens","rank":4,"dept":"62"},"geometry":{"type":"Point","coordinates":[2.8191,50.4395]}},{"type":"Feature","properties":{"nom":"Liévin","rank":4,"dept":"62"},"geometry":{"type":"Point","coordinates":[2.7702,50.4231]}},{"type":"Feature","properties":{"nom":"Clermont-Ferrand","rank":3,"dept":"63"},"geometry":{"type":"Point","coordinates":[3.1127,45.787]}},{"type":"Feature","properties":{"nom":"Anglet","rank":4,"dept":"64"},"geometry":{"type":"Point","coordinates":[-1.5193,43.4893]}},{"type":"Feature","properties":{"nom":"Bayonne","rank":4,"dept":"64"},"geometry":{"type":"Point","coordinates":[-1.4611,43.4844]}},{"type":"Feature","properties":{"nom":"Biarritz","rank":4,"dept":"64"},"geometry":{"type":"Point","coordinates":[-1.5557,43.4709]}},{"type":"Feature","properties":{"nom":"Pau","rank":3,"dept":"64"},"geometry":{"type":"Point","coordinates":[-0.3435,43.3219]}},{"type":"Feature","properties":{"nom":"Tarbes","rank":3,"dept":"65"},"geometry":{"type":"Point","coordinates":[0.0653,43.2387]}},{"type":"Feature","properties":{"nom":"Perpignan","rank":3,"dept":"66"},"geometry":{"type":"Point","coordinates":[2.9045,42.699]}},{"type":"Feature","properties":{"nom":"Haguenau","rank":4,"dept":"67"},"geometry":{"type":"Point","coordinates":[7.8213,48.8388]}},{"type":"Feature","properties":{"nom":"Illkirch-Graffenstaden","rank":4,"dept":"67"},"geometry":{"type":"Point","coordinates":[7.7302,48.522]}},{"type":"Feature","properties":{"nom":"Lingolsheim","rank":4,"dept":"67"},"geometry":{"type":"Point","coordinates":[7.6837,48.5543]}},{"type":"Feature","properties":{"nom":"Schiltigheim","rank":4,"dept":"67"},"geometry":{"type":"Point","coordinates":[7.7511,48.6118]}},{"type":"Feature","properties":{"nom":"Strasbourg","rank":1,"dept":"67"},"geometry":{"type":"Point","coordinates":[7.7621,48.5691]}},{"type":"Feature","properties":{"nom":"Colmar","rank":3,"dept":"68"},"geometry":{"type":"Point","coordinates":[7.3924,48.1115]}},{"type":"Feature","properties":{"nom":"Mulhouse","rank":4,"dept":"68"},"geometry":{"type":"Point","coordinates":[7.3255,47.7526]}},{"type":"Feature","properties":{"nom":"Saint-Louis","rank":4,"dept":"68"},"geometry":{"type":"Point","coordinates":[7.543,47.5986]}},{"type":"Feature","properties":{"nom":"Bron","rank":4,"dept":"69"},"geometry":{"type":"Point","coordinates":[4.9116,45.7355]}},{"type":"Feature","properties":{"nom":"Caluire-et-Cuire","rank":4,"dept":"69"},"geometry":{"type":"Point","coordinates":[4.8494,45.7986]}},{"type":"Feature","properties":{"nom":"Givors","rank":4,"dept":"69"},"geometry":{"type":"Point","coordinates":[4.7561,45.5845]}},{"type":"Feature","properties":{"nom":"Lyon","rank":1,"dept":"69"},"geometry":{"type":"Point","coordinates":[4.8351,45.758]}},{"type":"Feature","properties":{"nom":"Oullins-Pierre-Bénite","rank":4,"dept":"69"},"geometry":{"type":"Point","coordinates":[4.8112,45.708]}},{"type":"Feature","properties":{"nom":"Sainte-Foy-lès-Lyon","rank":4,"dept":"69"},"geometry":{"type":"Point","coordinates":[4.7926,45.7362]}},{"type":"Feature","properties":{"nom":"Saint-Genis-Laval","rank":4,"dept":"69"},"geometry":{"type":"Point","coordinates":[4.7929,45.6922]}},{"type":"Feature","properties":{"nom":"Tassin-la-Demi-Lune","rank":4,"dept":"69"},"geometry":{"type":"Point","coordinates":[4.7521,45.7637]}},{"type":"Feature","properties":{"nom":"Vaulx-en-Velin","rank":4,"dept":"69"},"geometry":{"type":"Point","coordinates":[4.925,45.7776]}},{"type":"Feature","properties":{"nom":"Vénissieux","rank":4,"dept":"69"},"geometry":{"type":"Point","coordinates":[4.8805,45.7012]}},{"type":"Feature","properties":{"nom":"Villefranche-sur-Saône","rank":4,"dept":"69"},"geometry":{"type":"Point","coordinates":[4.726,45.9837]}},{"type":"Feature","properties":{"nom":"Villeurbanne","rank":4,"dept":"69"},"geometry":{"type":"Point","coordinates":[4.8898,45.7719]}},{"type":"Feature","properties":{"nom":"Décines-Charpieu","rank":4,"dept":"69"},"geometry":{"type":"Point","coordinates":[4.9589,45.7759]}},{"type":"Feature","properties":{"nom":"Meyzieu","rank":4,"dept":"69"},"geometry":{"type":"Point","coordinates":[5.0114,45.7785]}},{"type":"Feature","properties":{"nom":"Rillieux-la-Pape","rank":4,"dept":"69"},"geometry":{"type":"Point","coordinates":[4.895,45.8265]}},{"type":"Feature","properties":{"nom":"Saint-Priest","rank":4,"dept":"69"},"geometry":{"type":"Point","coordinates":[4.9474,45.7014]}},{"type":"Feature","properties":{"nom":"Vesoul","rank":3,"dept":"70"},"geometry":{"type":"Point","coordinates":[6.1523,47.6323]}},{"type":"Feature","properties":{"nom":"Chalon-sur-Saône","rank":4,"dept":"71"},"geometry":{"type":"Point","coordinates":[4.8509,46.7896]}},{"type":"Feature","properties":{"nom":"Le Creusot","rank":4,"dept":"71"},"geometry":{"type":"Point","coordinates":[4.4257,46.8065]}},{"type":"Feature","properties":{"nom":"Mâcon","rank":3,"dept":"71"},"geometry":{"type":"Point","coordinates":[4.8083,46.3265]}},{"type":"Feature","properties":{"nom":"Le Mans","rank":3,"dept":"72"},"geometry":{"type":"Point","coordinates":[0.1957,47.9819]}},{"type":"Feature","properties":{"nom":"Aix-les-Bains","rank":4,"dept":"73"},"geometry":{"type":"Point","coordinates":[5.9035,45.6943]}},{"type":"Feature","properties":{"nom":"Chambéry","rank":3,"dept":"73"},"geometry":{"type":"Point","coordinates":[5.9064,45.5822]}},{"type":"Feature","properties":{"nom":"Annecy","rank":3,"dept":"74"},"geometry":{"type":"Point","coordinates":[6.1264,45.9024]}},{"type":"Feature","properties":{"nom":"Annemasse","rank":4,"dept":"74"},"geometry":{"type":"Point","coordinates":[6.2476,46.189]}},{"type":"Feature","properties":{"nom":"Thonon-les-Bains","rank":4,"dept":"74"},"geometry":{"type":"Point","coordinates":[6.4776,46.3745]}},{"type":"Feature","properties":{"nom":"Paris","rank":1,"dept":"75"},"geometry":{"type":"Point","coordinates":[2.347,48.8589]}},{"type":"Feature","properties":{"nom":"Dieppe","rank":4,"dept":"76"},"geometry":{"type":"Point","coordinates":[1.0838,49.9199]}},{"type":"Feature","properties":{"nom":"Le Grand-Quevilly","rank":4,"dept":"76"},"geometry":{"type":"Point","coordinates":[1.0416,49.4118]}},{"type":"Feature","properties":{"nom":"Le Havre","rank":4,"dept":"76"},"geometry":{"type":"Point","coordinates":[0.1312,49.4958]}},{"type":"Feature","properties":{"nom":"Mont-Saint-Aignan","rank":4,"dept":"76"},"geometry":{"type":"Point","coordinates":[1.0806,49.4673]}},{"type":"Feature","properties":{"nom":"Le Petit-Quevilly","rank":4,"dept":"76"},"geometry":{"type":"Point","coordinates":[1.0572,49.4238]}},{"type":"Feature","properties":{"nom":"Rouen","rank":3,"dept":"76"},"geometry":{"type":"Point","coordinates":[1.0912,49.4412]}},{"type":"Feature","properties":{"nom":"Saint-Étienne-du-Rouvray","rank":4,"dept":"76"},"geometry":{"type":"Point","coordinates":[1.0909,49.3833]}},{"type":"Feature","properties":{"nom":"Sotteville-lès-Rouen","rank":4,"dept":"76"},"geometry":{"type":"Point","coordinates":[1.0944,49.4116]}},{"type":"Feature","properties":{"nom":"Bussy-Saint-Georges","rank":4,"dept":"77"},"geometry":{"type":"Point","coordinates":[2.7091,48.8297]}},{"type":"Feature","properties":{"nom":"Champs-sur-Marne","rank":4,"dept":"77"},"geometry":{"type":"Point","coordinates":[2.594,48.8485]}},{"type":"Feature","properties":{"nom":"Chelles","rank":4,"dept":"77"},"geometry":{"type":"Point","coordinates":[2.5954,48.8845]}},{"type":"Feature","properties":{"nom":"Combs-la-Ville","rank":4,"dept":"77"},"geometry":{"type":"Point","coordinates":[2.5765,48.6602]}},{"type":"Feature","properties":{"nom":"Dammarie-les-Lys","rank":4,"dept":"77"},"geometry":{"type":"Point","coordinates":[2.6199,48.5147]}},{"type":"Feature","properties":{"nom":"Lagny-sur-Marne","rank":4,"dept":"77"},"geometry":{"type":"Point","coordinates":[2.7045,48.8716]}},{"type":"Feature","properties":{"nom":"Meaux","rank":4,"dept":"77"},"geometry":{"type":"Point","coordinates":[2.9035,48.9573]}},{"type":"Feature","properties":{"nom":"Melun","rank":3,"dept":"77"},"geometry":{"type":"Point","coordinates":[2.6552,48.5421]}},{"type":"Feature","properties":{"nom":"Mitry-Mory","rank":4,"dept":"77"},"geometry":{"type":"Point","coordinates":[2.6116,48.9796]}},{"type":"Feature","properties":{"nom":"Montereau-Fault-Yonne","rank":4,"dept":"77"},"geometry":{"type":"Point","coordinates":[2.962,48.3887]}},{"type":"Feature","properties":{"nom":"Ozoir-la-Ferrière","rank":4,"dept":"77"},"geometry":{"type":"Point","coordinates":[2.6753,48.7631]}},{"type":"Feature","properties":{"nom":"Pontault-Combault","rank":4,"dept":"77"},"geometry":{"type":"Point","coordinates":[2.6173,48.7885]}},{"type":"Feature","properties":{"nom":"Roissy-en-Brie","rank":4,"dept":"77"},"geometry":{"type":"Point","coordinates":[2.6647,48.7913]}},{"type":"Feature","properties":{"nom":"Savigny-le-Temple","rank":4,"dept":"77"},"geometry":{"type":"Point","coordinates":[2.5759,48.5846]}},{"type":"Feature","properties":{"nom":"Torcy","rank":4,"dept":"77"},"geometry":{"type":"Point","coordinates":[2.6476,48.8534]}},{"type":"Feature","properties":{"nom":"Villeparisis","rank":4,"dept":"77"},"geometry":{"type":"Point","coordinates":[2.6178,48.9408]}},{"type":"Feature","properties":{"nom":"Achères","rank":4,"dept":"78"},"geometry":{"type":"Point","coordinates":[2.1095,48.9817]}},{"type":"Feature","properties":{"nom":"Carrières-sous-Poissy","rank":4,"dept":"78"},"geometry":{"type":"Point","coordinates":[2.0264,48.9469]}},{"type":"Feature","properties":{"nom":"La Celle-Saint-Cloud","rank":4,"dept":"78"},"geometry":{"type":"Point","coordinates":[2.1342,48.8498]}},{"type":"Feature","properties":{"nom":"Chatou","rank":4,"dept":"78"},"geometry":{"type":"Point","coordinates":[2.1502,48.8964]}},{"type":"Feature","properties":{"nom":"Le Chesnay-Rocquencourt","rank":4,"dept":"78"},"geometry":{"type":"Point","coordinates":[2.1188,48.8285]}},{"type":"Feature","properties":{"nom":"Conflans-Sainte-Honorine","rank":4,"dept":"78"},"geometry":{"type":"Point","coordinates":[2.0992,49.0016]}},{"type":"Feature","properties":{"nom":"Élancourt","rank":4,"dept":"78"},"geometry":{"type":"Point","coordinates":[1.9612,48.7771]}},{"type":"Feature","properties":{"nom":"Guyancourt","rank":4,"dept":"78"},"geometry":{"type":"Point","coordinates":[2.0745,48.7735]}},{"type":"Feature","properties":{"nom":"Houilles","rank":4,"dept":"78"},"geometry":{"type":"Point","coordinates":[2.1866,48.9266]}},{"type":"Feature","properties":{"nom":"Maisons-Laffitte","rank":4,"dept":"78"},"geometry":{"type":"Point","coordinates":[2.1533,48.9503]}},{"type":"Feature","properties":{"nom":"Mantes-la-Jolie","rank":4,"dept":"78"},"geometry":{"type":"Point","coordinates":[1.6918,48.9961]}},{"type":"Feature","properties":{"nom":"Mantes-la-Ville","rank":4,"dept":"78"},"geometry":{"type":"Point","coordinates":[1.7103,48.9752]}},{"type":"Feature","properties":{"nom":"Maurepas","rank":4,"dept":"78"},"geometry":{"type":"Point","coordinates":[1.925,48.7712]}},{"type":"Feature","properties":{"nom":"Montigny-le-Bretonneux","rank":4,"dept":"78"},"geometry":{"type":"Point","coordinates":[2.0252,48.7776]}},{"type":"Feature","properties":{"nom":"Les Mureaux","rank":4,"dept":"78"},"geometry":{"type":"Point","coordinates":[1.911,48.9877]}},{"type":"Feature","properties":{"nom":"Plaisir","rank":4,"dept":"78"},"geometry":{"type":"Point","coordinates":[1.9483,48.8129]}},{"type":"Feature","properties":{"nom":"Poissy","rank":4,"dept":"78"},"geometry":{"type":"Point","coordinates":[2.025,48.9241]}},{"type":"Feature","properties":{"nom":"Rambouillet","rank":4,"dept":"78"},"geometry":{"type":"Point","coordinates":[1.8339,48.6538]}},{"type":"Feature","properties":{"nom":"Saint-Cyr-l'École","rank":4,"dept":"78"},"geometry":{"type":"Point","coordinates":[2.0657,48.8064]}},{"type":"Feature","properties":{"nom":"Saint-Germain-en-Laye","rank":4,"dept":"78"},"geometry":{"type":"Point","coordinates":[2.1052,48.931]}},{"type":"Feature","properties":{"nom":"Sartrouville","rank":4,"dept":"78"},"geometry":{"type":"Point","coordinates":[2.1744,48.9374]}},{"type":"Feature","properties":{"nom":"Trappes","rank":4,"dept":"78"},"geometry":{"type":"Point","coordinates":[1.9964,48.7738]}},{"type":"Feature","properties":{"nom":"Vélizy-Villacoublay","rank":4,"dept":"78"},"geometry":{"type":"Point","coordinates":[2.1956,48.784]}},{"type":"Feature","properties":{"nom":"Versailles","rank":3,"dept":"78"},"geometry":{"type":"Point","coordinates":[2.1191,48.8039]}},{"type":"Feature","properties":{"nom":"Niort","rank":3,"dept":"79"},"geometry":{"type":"Point","coordinates":[-0.4613,46.3274]}},{"type":"Feature","properties":{"nom":"Abbeville","rank":4,"dept":"80"},"geometry":{"type":"Point","coordinates":[1.8319,50.1101]}},{"type":"Feature","properties":{"nom":"Amiens","rank":3,"dept":"80"},"geometry":{"type":"Point","coordinates":[2.2847,49.8987]}},{"type":"Feature","properties":{"nom":"Albi","rank":3,"dept":"81"},"geometry":{"type":"Point","coordinates":[2.1323,43.929]}},{"type":"Feature","properties":{"nom":"Castres","rank":4,"dept":"81"},"geometry":{"type":"Point","coordinates":[2.2448,43.6132]}},{"type":"Feature","properties":{"nom":"Montauban","rank":3,"dept":"82"},"geometry":{"type":"Point","coordinates":[1.3646,44.0217]}},{"type":"Feature","properties":{"nom":"Draguignan","rank":4,"dept":"83"},"geometry":{"type":"Point","coordinates":[6.4651,43.5346]}},{"type":"Feature","properties":{"nom":"Fréjus","rank":4,"dept":"83"},"geometry":{"type":"Point","coordinates":[6.7848,43.4553]}},{"type":"Feature","properties":{"nom":"La Garde","rank":4,"dept":"83"},"geometry":{"type":"Point","coordinates":[6.0162,43.129]}},{"type":"Feature","properties":{"nom":"Hyères","rank":4,"dept":"83"},"geometry":{"type":"Point","coordinates":[6.2357,43.1139]}},{"type":"Feature","properties":{"nom":"Saint-Raphaël","rank":4,"dept":"83"},"geometry":{"type":"Point","coordinates":[6.8483,43.4582]}},{"type":"Feature","properties":{"nom":"La Seyne-sur-Mer","rank":4,"dept":"83"},"geometry":{"type":"Point","coordinates":[5.8789,43.0837]}},{"type":"Feature","properties":{"nom":"Six-Fours-les-Plages","rank":4,"dept":"83"},"geometry":{"type":"Point","coordinates":[5.8079,43.0843]}},{"type":"Feature","properties":{"nom":"Toulon","rank":3,"dept":"83"},"geometry":{"type":"Point","coordinates":[5.9334,43.1364]}},{"type":"Feature","properties":{"nom":"La Valette-du-Var","rank":4,"dept":"83"},"geometry":{"type":"Point","coordinates":[5.9893,43.1484]}},{"type":"Feature","properties":{"nom":"Avignon","rank":3,"dept":"84"},"geometry":{"type":"Point","coordinates":[4.8333,43.9416]}},{"type":"Feature","properties":{"nom":"Carpentras","rank":4,"dept":"84"},"geometry":{"type":"Point","coordinates":[5.0584,44.0629]}},{"type":"Feature","properties":{"nom":"Cavaillon","rank":4,"dept":"84"},"geometry":{"type":"Point","coordinates":[5.0333,43.8485]}},{"type":"Feature","properties":{"nom":"L'Isle-sur-la-Sorgue","rank":4,"dept":"84"},"geometry":{"type":"Point","coordinates":[5.0588,43.9191]}},{"type":"Feature","properties":{"nom":"Orange","rank":4,"dept":"84"},"geometry":{"type":"Point","coordinates":[4.8031,44.1264]}},{"type":"Feature","properties":{"nom":"Challans","rank":4,"dept":"85"},"geometry":{"type":"Point","coordinates":[-1.8422,46.833]}},{"type":"Feature","properties":{"nom":"Montaigu-Vendée","rank":4,"dept":"85"},"geometry":{"type":"Point","coordinates":[-1.2923,46.9741]}},{"type":"Feature","properties":{"nom":"La Roche-sur-Yon","rank":3,"dept":"85"},"geometry":{"type":"Point","coordinates":[-1.4162,46.6659]}},{"type":"Feature","properties":{"nom":"Les Sables-d'Olonne","rank":4,"dept":"85"},"geometry":{"type":"Point","coordinates":[-1.7611,46.5264]}},{"type":"Feature","properties":{"nom":"Châtellerault","rank":4,"dept":"86"},"geometry":{"type":"Point","coordinates":[0.5583,46.8147]}},{"type":"Feature","properties":{"nom":"Poitiers","rank":3,"dept":"86"},"geometry":{"type":"Point","coordinates":[0.3715,46.5846]}},{"type":"Feature","properties":{"nom":"Limoges","rank":3,"dept":"87"},"geometry":{"type":"Point","coordinates":[1.226,45.8567]}},{"type":"Feature","properties":{"nom":"Épinal","rank":3,"dept":"88"},"geometry":{"type":"Point","coordinates":[6.4867,48.1637]}},{"type":"Feature","properties":{"nom":"Auxerre","rank":3,"dept":"89"},"geometry":{"type":"Point","coordinates":[3.5821,47.7939]}},{"type":"Feature","properties":{"nom":"Sens","rank":4,"dept":"89"},"geometry":{"type":"Point","coordinates":[3.3039,48.1949]}},{"type":"Feature","properties":{"nom":"Belfort","rank":3,"dept":"90"},"geometry":{"type":"Point","coordinates":[6.841,47.6458]}},{"type":"Feature","properties":{"nom":"Athis-Mons","rank":4,"dept":"91"},"geometry":{"type":"Point","coordinates":[2.3848,48.7093]}},{"type":"Feature","properties":{"nom":"Brétigny-sur-Orge","rank":4,"dept":"91"},"geometry":{"type":"Point","coordinates":[2.2989,48.601]}},{"type":"Feature","properties":{"nom":"Brunoy","rank":4,"dept":"91"},"geometry":{"type":"Point","coordinates":[2.5059,48.6948]}},{"type":"Feature","properties":{"nom":"Chilly-Mazarin","rank":4,"dept":"91"},"geometry":{"type":"Point","coordinates":[2.3103,48.7051]}},{"type":"Feature","properties":{"nom":"Corbeil-Essonnes","rank":4,"dept":"91"},"geometry":{"type":"Point","coordinates":[2.4646,48.5973]}},{"type":"Feature","properties":{"nom":"Draveil","rank":4,"dept":"91"},"geometry":{"type":"Point","coordinates":[2.4249,48.6777]}},{"type":"Feature","properties":{"nom":"Étampes","rank":4,"dept":"91"},"geometry":{"type":"Point","coordinates":[2.1524,48.4227]}},{"type":"Feature","properties":{"nom":"Évry-Courcouronnes","rank":3,"dept":"91"},"geometry":{"type":"Point","coordinates":[2.4313,48.6287]}},{"type":"Feature","properties":{"nom":"Gif-sur-Yvette","rank":4,"dept":"91"},"geometry":{"type":"Point","coordinates":[2.1342,48.6964]}},{"type":"Feature","properties":{"nom":"Grigny","rank":4,"dept":"91"},"geometry":{"type":"Point","coordinates":[2.3861,48.6584]}},{"type":"Feature","properties":{"nom":"Longjumeau","rank":4,"dept":"91"},"geometry":{"type":"Point","coordinates":[2.3057,48.6923]}},{"type":"Feature","properties":{"nom":"Massy","rank":4,"dept":"91"},"geometry":{"type":"Point","coordinates":[2.2696,48.7263]}},{"type":"Feature","properties":{"nom":"Montgeron","rank":4,"dept":"91"},"geometry":{"type":"Point","coordinates":[2.4638,48.6952]}},{"type":"Feature","properties":{"nom":"Morsang-sur-Orge","rank":4,"dept":"91"},"geometry":{"type":"Point","coordinates":[2.3513,48.6564]}},{"type":"Feature","properties":{"nom":"Palaiseau","rank":4,"dept":"91"},"geometry":{"type":"Point","coordinates":[2.2293,48.7155]}},{"type":"Feature","properties":{"nom":"Ris-Orangis","rank":4,"dept":"91"},"geometry":{"type":"Point","coordinates":[2.4104,48.6457]}},{"type":"Feature","properties":{"nom":"Sainte-Geneviève-des-Bois","rank":4,"dept":"91"},"geometry":{"type":"Point","coordinates":[2.3272,48.643]}},{"type":"Feature","properties":{"nom":"Saint-Michel-sur-Orge","rank":4,"dept":"91"},"geometry":{"type":"Point","coordinates":[2.313,48.6326]}},{"type":"Feature","properties":{"nom":"Savigny-sur-Orge","rank":4,"dept":"91"},"geometry":{"type":"Point","coordinates":[2.3493,48.6851]}},{"type":"Feature","properties":{"nom":"Vigneux-sur-Seine","rank":4,"dept":"91"},"geometry":{"type":"Point","coordinates":[2.4274,48.7021]}},{"type":"Feature","properties":{"nom":"Viry-Châtillon","rank":4,"dept":"91"},"geometry":{"type":"Point","coordinates":[2.3758,48.6662]}},{"type":"Feature","properties":{"nom":"Yerres","rank":4,"dept":"91"},"geometry":{"type":"Point","coordinates":[2.4932,48.7129]}},{"type":"Feature","properties":{"nom":"Les Ulis","rank":4,"dept":"91"},"geometry":{"type":"Point","coordinates":[2.1864,48.6817]}},{"type":"Feature","properties":{"nom":"Antony","rank":4,"dept":"92"},"geometry":{"type":"Point","coordinates":[2.2976,48.7507]}},{"type":"Feature","properties":{"nom":"Asnières-sur-Seine","rank":4,"dept":"92"},"geometry":{"type":"Point","coordinates":[2.2935,48.9181]}},{"type":"Feature","properties":{"nom":"Bagneux","rank":4,"dept":"92"},"geometry":{"type":"Point","coordinates":[2.3093,48.798]}},{"type":"Feature","properties":{"nom":"Bois-Colombes","rank":4,"dept":"92"},"geometry":{"type":"Point","coordinates":[2.2688,48.9151]}},{"type":"Feature","properties":{"nom":"Boulogne-Billancourt","rank":4,"dept":"92"},"geometry":{"type":"Point","coordinates":[2.2429,48.8375]}},{"type":"Feature","properties":{"nom":"Bourg-la-Reine","rank":4,"dept":"92"},"geometry":{"type":"Point","coordinates":[2.3167,48.7801]}},{"type":"Feature","properties":{"nom":"Châtenay-Malabry","rank":4,"dept":"92"},"geometry":{"type":"Point","coordinates":[2.2603,48.7697]}},{"type":"Feature","properties":{"nom":"Châtillon","rank":4,"dept":"92"},"geometry":{"type":"Point","coordinates":[2.2887,48.8031]}},{"type":"Feature","properties":{"nom":"Chaville","rank":4,"dept":"92"},"geometry":{"type":"Point","coordinates":[2.191,48.8091]}},{"type":"Feature","properties":{"nom":"Clamart","rank":4,"dept":"92"},"geometry":{"type":"Point","coordinates":[2.2518,48.7957]}},{"type":"Feature","properties":{"nom":"Clichy","rank":4,"dept":"92"},"geometry":{"type":"Point","coordinates":[2.3041,48.9041]}},{"type":"Feature","properties":{"nom":"Colombes","rank":4,"dept":"92"},"geometry":{"type":"Point","coordinates":[2.2469,48.9218]}},{"type":"Feature","properties":{"nom":"Courbevoie","rank":4,"dept":"92"},"geometry":{"type":"Point","coordinates":[2.2574,48.8976]}},{"type":"Feature","properties":{"nom":"Fontenay-aux-Roses","rank":4,"dept":"92"},"geometry":{"type":"Point","coordinates":[2.2876,48.7895]}},{"type":"Feature","properties":{"nom":"La Garenne-Colombes","rank":4,"dept":"92"},"geometry":{"type":"Point","coordinates":[2.2437,48.9071]}},{"type":"Feature","properties":{"nom":"Gennevilliers","rank":4,"dept":"92"},"geometry":{"type":"Point","coordinates":[2.288,48.9319]}},{"type":"Feature","properties":{"nom":"Issy-les-Moulineaux","rank":4,"dept":"92"},"geometry":{"type":"Point","coordinates":[2.2628,48.824]}},{"type":"Feature","properties":{"nom":"Levallois-Perret","rank":4,"dept":"92"},"geometry":{"type":"Point","coordinates":[2.2874,48.8946]}},{"type":"Feature","properties":{"nom":"Malakoff","rank":4,"dept":"92"},"geometry":{"type":"Point","coordinates":[2.2943,48.817]}},{"type":"Feature","properties":{"nom":"Meudon","rank":4,"dept":"92"},"geometry":{"type":"Point","coordinates":[2.2288,48.8028]}},{"type":"Feature","properties":{"nom":"Montrouge","rank":4,"dept":"92"},"geometry":{"type":"Point","coordinates":[2.3163,48.8159]}},{"type":"Feature","properties":{"nom":"Nanterre","rank":3,"dept":"92"},"geometry":{"type":"Point","coordinates":[2.2018,48.8974]}},{"type":"Feature","properties":{"nom":"Neuilly-sur-Seine","rank":4,"dept":"92"},"geometry":{"type":"Point","coordinates":[2.2651,48.8862]}},{"type":"Feature","properties":{"nom":"Le Plessis-Robinson","rank":4,"dept":"92"},"geometry":{"type":"Point","coordinates":[2.2592,48.7815]}},{"type":"Feature","properties":{"nom":"Puteaux","rank":4,"dept":"92"},"geometry":{"type":"Point","coordinates":[2.2384,48.8824]}},{"type":"Feature","properties":{"nom":"Rueil-Malmaison","rank":4,"dept":"92"},"geometry":{"type":"Point","coordinates":[2.1806,48.8717]}},{"type":"Feature","properties":{"nom":"Saint-Cloud","rank":4,"dept":"92"},"geometry":{"type":"Point","coordinates":[2.2032,48.844]}},{"type":"Feature","properties":{"nom":"Sceaux","rank":4,"dept":"92"},"geometry":{"type":"Point","coordinates":[2.2963,48.776]}},{"type":"Feature","properties":{"nom":"Sèvres","rank":4,"dept":"92"},"geometry":{"type":"Point","coordinates":[2.2056,48.8223]}},{"type":"Feature","properties":{"nom":"Suresnes","rank":4,"dept":"92"},"geometry":{"type":"Point","coordinates":[2.2183,48.871]}},{"type":"Feature","properties":{"nom":"Vanves","rank":4,"dept":"92"},"geometry":{"type":"Point","coordinates":[2.2869,48.8214]}},{"type":"Feature","properties":{"nom":"Villeneuve-la-Garenne","rank":4,"dept":"92"},"geometry":{"type":"Point","coordinates":[2.3231,48.9354]}},{"type":"Feature","properties":{"nom":"Aubervilliers","rank":4,"dept":"93"},"geometry":{"type":"Point","coordinates":[2.3886,48.9128]}},{"type":"Feature","properties":{"nom":"Aulnay-sous-Bois","rank":4,"dept":"93"},"geometry":{"type":"Point","coordinates":[2.4918,48.9457]}},{"type":"Feature","properties":{"nom":"Bagnolet","rank":4,"dept":"93"},"geometry":{"type":"Point","coordinates":[2.4252,48.8671]}},{"type":"Feature","properties":{"nom":"Le Blanc-Mesnil","rank":4,"dept":"93"},"geometry":{"type":"Point","coordinates":[2.4576,48.9372]}},{"type":"Feature","properties":{"nom":"Bobigny","rank":3,"dept":"93"},"geometry":{"type":"Point","coordinates":[2.4432,48.9073]}},{"type":"Feature","properties":{"nom":"Bondy","rank":4,"dept":"93"},"geometry":{"type":"Point","coordinates":[2.4846,48.9036]}},{"type":"Feature","properties":{"nom":"Clichy-sous-Bois","rank":4,"dept":"93"},"geometry":{"type":"Point","coordinates":[2.5432,48.9081]}},{"type":"Feature","properties":{"nom":"La Courneuve","rank":4,"dept":"93"},"geometry":{"type":"Point","coordinates":[2.3986,48.9341]}},{"type":"Feature","properties":{"nom":"Drancy","rank":4,"dept":"93"},"geometry":{"type":"Point","coordinates":[2.4446,48.925]}},{"type":"Feature","properties":{"nom":"Épinay-sur-Seine","rank":4,"dept":"93"},"geometry":{"type":"Point","coordinates":[2.3172,48.9544]}},{"type":"Feature","properties":{"nom":"Gagny","rank":4,"dept":"93"},"geometry":{"type":"Point","coordinates":[2.545,48.8826]}},{"type":"Feature","properties":{"nom":"Les Lilas","rank":4,"dept":"93"},"geometry":{"type":"Point","coordinates":[2.4207,48.8821]}},{"type":"Feature","properties":{"nom":"Livry-Gargan","rank":4,"dept":"93"},"geometry":{"type":"Point","coordinates":[2.5351,48.9184]}},{"type":"Feature","properties":{"nom":"Montfermeil","rank":4,"dept":"93"},"geometry":{"type":"Point","coordinates":[2.5678,48.8976]}},{"type":"Feature","properties":{"nom":"Montreuil","rank":4,"dept":"93"},"geometry":{"type":"Point","coordinates":[2.4491,48.8637]}},{"type":"Feature","properties":{"nom":"Neuilly-Plaisance","rank":4,"dept":"93"},"geometry":{"type":"Point","coordinates":[2.5097,48.8641]}},{"type":"Feature","properties":{"nom":"Neuilly-sur-Marne","rank":4,"dept":"93"},"geometry":{"type":"Point","coordinates":[2.5419,48.8645]}},{"type":"Feature","properties":{"nom":"Noisy-le-Grand","rank":4,"dept":"93"},"geometry":{"type":"Point","coordinates":[2.556,48.8327]}},{"type":"Feature","properties":{"nom":"Noisy-le-Sec","rank":4,"dept":"93"},"geometry":{"type":"Point","coordinates":[2.4578,48.8917]}},{"type":"Feature","properties":{"nom":"Pantin","rank":4,"dept":"93"},"geometry":{"type":"Point","coordinates":[2.4085,48.9006]}},{"type":"Feature","properties":{"nom":"Les Pavillons-sous-Bois","rank":4,"dept":"93"},"geometry":{"type":"Point","coordinates":[2.5057,48.907]}},{"type":"Feature","properties":{"nom":"Romainville","rank":4,"dept":"93"},"geometry":{"type":"Point","coordinates":[2.4391,48.8849]}},{"type":"Feature","properties":{"nom":"Rosny-sous-Bois","rank":4,"dept":"93"},"geometry":{"type":"Point","coordinates":[2.4872,48.8744]}},{"type":"Feature","properties":{"nom":"Saint-Denis","rank":4,"dept":"93"},"geometry":{"type":"Point","coordinates":[2.3657,48.9378]}},{"type":"Feature","properties":{"nom":"Saint-Ouen-sur-Seine","rank":4,"dept":"93"},"geometry":{"type":"Point","coordinates":[2.3329,48.9118]}},{"type":"Feature","properties":{"nom":"Sevran","rank":4,"dept":"93"},"geometry":{"type":"Point","coordinates":[2.5311,48.9378]}},{"type":"Feature","properties":{"nom":"Stains","rank":4,"dept":"93"},"geometry":{"type":"Point","coordinates":[2.3868,48.9578]}},{"type":"Feature","properties":{"nom":"Tremblay-en-France","rank":4,"dept":"93"},"geometry":{"type":"Point","coordinates":[2.5481,48.9744]}},{"type":"Feature","properties":{"nom":"Villemomble","rank":4,"dept":"93"},"geometry":{"type":"Point","coordinates":[2.5085,48.8866]}},{"type":"Feature","properties":{"nom":"Villepinte","rank":4,"dept":"93"},"geometry":{"type":"Point","coordinates":[2.5323,48.956]}},{"type":"Feature","properties":{"nom":"Alfortville","rank":4,"dept":"94"},"geometry":{"type":"Point","coordinates":[2.4214,48.7963]}},{"type":"Feature","properties":{"nom":"Arcueil","rank":4,"dept":"94"},"geometry":{"type":"Point","coordinates":[2.3328,48.8053]}},{"type":"Feature","properties":{"nom":"Cachan","rank":4,"dept":"94"},"geometry":{"type":"Point","coordinates":[2.3318,48.7914]}},{"type":"Feature","properties":{"nom":"Champigny-sur-Marne","rank":4,"dept":"94"},"geometry":{"type":"Point","coordinates":[2.5206,48.8173]}},{"type":"Feature","properties":{"nom":"Charenton-le-Pont","rank":4,"dept":"94"},"geometry":{"type":"Point","coordinates":[2.405,48.8229]}},{"type":"Feature","properties":{"nom":"Choisy-le-Roi","rank":4,"dept":"94"},"geometry":{"type":"Point","coordinates":[2.4202,48.7635]}},{"type":"Feature","properties":{"nom":"Créteil","rank":3,"dept":"94"},"geometry":{"type":"Point","coordinates":[2.4523,48.7845]}},{"type":"Feature","properties":{"nom":"Fontenay-sous-Bois","rank":4,"dept":"94"},"geometry":{"type":"Point","coordinates":[2.4736,48.8503]}},{"type":"Feature","properties":{"nom":"Fresnes","rank":4,"dept":"94"},"geometry":{"type":"Point","coordinates":[2.3263,48.7572]}},{"type":"Feature","properties":{"nom":"L'Haÿ-les-Roses","rank":4,"dept":"94"},"geometry":{"type":"Point","coordinates":[2.3416,48.7777]}},{"type":"Feature","properties":{"nom":"Ivry-sur-Seine","rank":4,"dept":"94"},"geometry":{"type":"Point","coordinates":[2.3872,48.8125]}},{"type":"Feature","properties":{"nom":"Joinville-le-Pont","rank":4,"dept":"94"},"geometry":{"type":"Point","coordinates":[2.4685,48.8199]}},{"type":"Feature","properties":{"nom":"Le Kremlin-Bicêtre","rank":4,"dept":"94"},"geometry":{"type":"Point","coordinates":[2.356,48.8087]}},{"type":"Feature","properties":{"nom":"Limeil-Brévannes","rank":4,"dept":"94"},"geometry":{"type":"Point","coordinates":[2.4924,48.7463]}},{"type":"Feature","properties":{"nom":"Maisons-Alfort","rank":4,"dept":"94"},"geometry":{"type":"Point","coordinates":[2.44,48.8017]}},{"type":"Feature","properties":{"nom":"Nogent-sur-Marne","rank":4,"dept":"94"},"geometry":{"type":"Point","coordinates":[2.4811,48.837]}},{"type":"Feature","properties":{"nom":"Orly","rank":4,"dept":"94"},"geometry":{"type":"Point","coordinates":[2.403,48.7402]}},{"type":"Feature","properties":{"nom":"Le Perreux-sur-Marne","rank":4,"dept":"94"},"geometry":{"type":"Point","coordinates":[2.5045,48.8433]}},{"type":"Feature","properties":{"nom":"Le Plessis-Trévise","rank":4,"dept":"94"},"geometry":{"type":"Point","coordinates":[2.5763,48.808]}},{"type":"Feature","properties":{"nom":"Saint-Mandé","rank":4,"dept":"94"},"geometry":{"type":"Point","coordinates":[2.4195,48.8414]}},{"type":"Feature","properties":{"nom":"Saint-Maur-des-Fossés","rank":4,"dept":"94"},"geometry":{"type":"Point","coordinates":[2.4921,48.7999]}},{"type":"Feature","properties":{"nom":"Sucy-en-Brie","rank":4,"dept":"94"},"geometry":{"type":"Point","coordinates":[2.5374,48.7688]}},{"type":"Feature","properties":{"nom":"Thiais","rank":4,"dept":"94"},"geometry":{"type":"Point","coordinates":[2.3869,48.7605]}},{"type":"Feature","properties":{"nom":"Villejuif","rank":4,"dept":"94"},"geometry":{"type":"Point","coordinates":[2.3603,48.7934]}},{"type":"Feature","properties":{"nom":"Villeneuve-le-Roi","rank":4,"dept":"94"},"geometry":{"type":"Point","coordinates":[2.4076,48.732]}},{"type":"Feature","properties":{"nom":"Villeneuve-Saint-Georges","rank":4,"dept":"94"},"geometry":{"type":"Point","coordinates":[2.4493,48.7389]}},{"type":"Feature","properties":{"nom":"Villiers-sur-Marne","rank":4,"dept":"94"},"geometry":{"type":"Point","coordinates":[2.5482,48.8278]}},{"type":"Feature","properties":{"nom":"Vincennes","rank":4,"dept":"94"},"geometry":{"type":"Point","coordinates":[2.4383,48.8471]}},{"type":"Feature","properties":{"nom":"Vitry-sur-Seine","rank":4,"dept":"94"},"geometry":{"type":"Point","coordinates":[2.3951,48.7893]}},{"type":"Feature","properties":{"nom":"Argenteuil","rank":4,"dept":"95"},"geometry":{"type":"Point","coordinates":[2.2478,48.9501]}},{"type":"Feature","properties":{"nom":"Bezons","rank":4,"dept":"95"},"geometry":{"type":"Point","coordinates":[2.2147,48.925]}},{"type":"Feature","properties":{"nom":"Cergy","rank":4,"dept":"95"},"geometry":{"type":"Point","coordinates":[2.0455,49.0373]}},{"type":"Feature","properties":{"nom":"Cormeilles-en-Parisis","rank":4,"dept":"95"},"geometry":{"type":"Point","coordinates":[2.201,48.9701]}},{"type":"Feature","properties":{"nom":"Deuil-la-Barre","rank":4,"dept":"95"},"geometry":{"type":"Point","coordinates":[2.327,48.9704]}},{"type":"Feature","properties":{"nom":"Eaubonne","rank":4,"dept":"95"},"geometry":{"type":"Point","coordinates":[2.2781,48.9912]}},{"type":"Feature","properties":{"nom":"Ermont","rank":4,"dept":"95"},"geometry":{"type":"Point","coordinates":[2.258,48.9891]}},{"type":"Feature","properties":{"nom":"Franconville","rank":4,"dept":"95"},"geometry":{"type":"Point","coordinates":[2.2235,48.9879]}},{"type":"Feature","properties":{"nom":"Garges-lès-Gonesse","rank":4,"dept":"95"},"geometry":{"type":"Point","coordinates":[2.4035,48.9696]}},{"type":"Feature","properties":{"nom":"Gonesse","rank":4,"dept":"95"},"geometry":{"type":"Point","coordinates":[2.4602,48.9856]}},{"type":"Feature","properties":{"nom":"Goussainville","rank":4,"dept":"95"},"geometry":{"type":"Point","coordinates":[2.4683,49.0266]}},{"type":"Feature","properties":{"nom":"Herblay-sur-Seine","rank":4,"dept":"95"},"geometry":{"type":"Point","coordinates":[2.1556,49.0052]}},{"type":"Feature","properties":{"nom":"Montigny-lès-Cormeilles","rank":4,"dept":"95"},"geometry":{"type":"Point","coordinates":[2.1937,48.9934]}},{"type":"Feature","properties":{"nom":"Montmorency","rank":4,"dept":"95"},"geometry":{"type":"Point","coordinates":[2.322,48.9922]}},{"type":"Feature","properties":{"nom":"Pontoise","rank":3,"dept":"95"},"geometry":{"type":"Point","coordinates":[2.0996,49.0488]}},{"type":"Feature","properties":{"nom":"Saint-Gratien","rank":4,"dept":"95"},"geometry":{"type":"Point","coordinates":[2.285,48.9679]}},{"type":"Feature","properties":{"nom":"Saint-Ouen-l'Aumône","rank":4,"dept":"95"},"geometry":{"type":"Point","coordinates":[2.1293,49.045]}},{"type":"Feature","properties":{"nom":"Sannois","rank":4,"dept":"95"},"geometry":{"type":"Point","coordinates":[2.2509,48.9731]}},{"type":"Feature","properties":{"nom":"Sarcelles","rank":4,"dept":"95"},"geometry":{"type":"Point","coordinates":[2.3858,48.9925]}},{"type":"Feature","properties":{"nom":"Taverny","rank":4,"dept":"95"},"geometry":{"type":"Point","coordinates":[2.2179,49.0274]}},{"type":"Feature","properties":{"nom":"Villiers-le-Bel","rank":4,"dept":"95"},"geometry":{"type":"Point","coordinates":[2.4036,49.008]}},{"type":"Feature","properties":{"nom":"Les Abymes","rank":4,"dept":"971"},"geometry":{"type":"Point","coordinates":[-61.4967,16.2678]}},{"type":"Feature","properties":{"nom":"Baie-Mahault","rank":4,"dept":"971"},"geometry":{"type":"Point","coordinates":[-61.5951,16.2498]}},{"type":"Feature","properties":{"nom":"Basse-Terre","rank":3,"dept":"971"},"geometry":{"type":"Point","coordinates":[-61.7294,15.9992]}},{"type":"Feature","properties":{"nom":"Le Gosier","rank":4,"dept":"971"},"geometry":{"type":"Point","coordinates":[-61.4749,16.2274]}},{"type":"Feature","properties":{"nom":"Le Moule","rank":4,"dept":"971"},"geometry":{"type":"Point","coordinates":[-61.36,16.3354]}},{"type":"Feature","properties":{"nom":"Petit-Bourg","rank":4,"dept":"971"},"geometry":{"type":"Point","coordinates":[-61.658,16.1695]}},{"type":"Feature","properties":{"nom":"Sainte-Anne","rank":4,"dept":"971"},"geometry":{"type":"Point","coordinates":[-61.3896,16.2565]}},{"type":"Feature","properties":{"nom":"Fort-de-France","rank":3,"dept":"972"},"geometry":{"type":"Point","coordinates":[-61.0686,14.6492]}},{"type":"Feature","properties":{"nom":"Le Lamentin","rank":4,"dept":"972"},"geometry":{"type":"Point","coordinates":[-60.9923,14.6231]}},{"type":"Feature","properties":{"nom":"Le Robert","rank":4,"dept":"972"},"geometry":{"type":"Point","coordinates":[-60.9243,14.6786]}},{"type":"Feature","properties":{"nom":"Cayenne","rank":3,"dept":"973"},"geometry":{"type":"Point","coordinates":[-52.3319,4.9464]}},{"type":"Feature","properties":{"nom":"Kourou","rank":4,"dept":"973"},"geometry":{"type":"Point","coordinates":[-52.7767,4.9085]}},{"type":"Feature","properties":{"nom":"Matoury","rank":4,"dept":"973"},"geometry":{"type":"Point","coordinates":[-52.3498,4.8281]}},{"type":"Feature","properties":{"nom":"Remire-Montjoly","rank":4,"dept":"973"},"geometry":{"type":"Point","coordinates":[-52.2809,4.8897]}},{"type":"Feature","properties":{"nom":"Saint-Laurent-du-Maroni","rank":4,"dept":"973"},"geometry":{"type":"Point","coordinates":[-54.0105,4.9478]}},{"type":"Feature","properties":{"nom":"Le Port","rank":4,"dept":"974"},"geometry":{"type":"Point","coordinates":[55.3038,-20.9459]}},{"type":"Feature","properties":{"nom":"La Possession","rank":4,"dept":"974"},"geometry":{"type":"Point","coordinates":[55.3918,-20.9965]}},{"type":"Feature","properties":{"nom":"Saint-André","rank":4,"dept":"974"},"geometry":{"type":"Point","coordinates":[55.6374,-20.9568]}},{"type":"Feature","properties":{"nom":"Saint-Benoît","rank":4,"dept":"974"},"geometry":{"type":"Point","coordinates":[55.6313,-21.0887]}},{"type":"Feature","properties":{"nom":"Saint-Denis","rank":3,"dept":"974"},"geometry":{"type":"Point","coordinates":[55.4444,-20.9434]}},{"type":"Feature","properties":{"nom":"Saint-Joseph","rank":4,"dept":"974"},"geometry":{"type":"Point","coordinates":[55.644,-21.2921]}},{"type":"Feature","properties":{"nom":"Saint-Leu","rank":4,"dept":"974"},"geometry":{"type":"Point","coordinates":[55.3432,-21.1816]}},{"type":"Feature","properties":{"nom":"Saint-Louis","rank":4,"dept":"974"},"geometry":{"type":"Point","coordinates":[55.4224,-21.2254]}},{"type":"Feature","properties":{"nom":"Saint-Paul","rank":4,"dept":"974"},"geometry":{"type":"Point","coordinates":[55.3402,-21.0366]}},{"type":"Feature","properties":{"nom":"Saint-Pierre","rank":4,"dept":"974"},"geometry":{"type":"Point","coordinates":[55.5044,-21.309]}},{"type":"Feature","properties":{"nom":"Sainte-Marie","rank":4,"dept":"974"},"geometry":{"type":"Point","coordinates":[55.5234,-20.9463]}},{"type":"Feature","properties":{"nom":"Sainte-Suzanne","rank":4,"dept":"974"},"geometry":{"type":"Point","coordinates":[55.5936,-20.9507]}},{"type":"Feature","properties":{"nom":"Le Tampon","rank":4,"dept":"974"},"geometry":{"type":"Point","coordinates":[55.5701,-21.225]}},{"type":"Feature","properties":{"nom":"Koungou","rank":4,"dept":"976"},"geometry":{"type":"Point","coordinates":[45.1912,-12.7417]}},{"type":"Feature","properties":{"nom":"Mamoudzou","rank":3,"dept":"976"},"geometry":{"type":"Point","coordinates":[45.1964,-12.7875]}},{"type":"Feature","properties":{"nom":"Saint-Martin","rank":4,"dept":"978"},"geometry":{"type":"Point","coordinates":[-63.062,18.0855]}},{"type":"Feature","properties":{"nom":"Faaa","rank":4,"dept":"987"},"geometry":{"type":"Point","coordinates":[-149.56,-17.5843]}},{"type":"Feature","properties":{"nom":"Papeete","rank":4,"dept":"987"},"geometry":{"type":"Point","coordinates":[-149.5555,-17.5572]}},{"type":"Feature","properties":{"nom":"Punaauia","rank":4,"dept":"987"},"geometry":{"type":"Point","coordinates":[-149.5486,-17.618]}},{"type":"Feature","properties":{"nom":"Dumbéa","rank":4,"dept":"988"},"geometry":{"type":"Point","coordinates":[166.497,-22.1337]}},{"type":"Feature","properties":{"nom":"Le Mont-Dore","rank":4,"dept":"988"},"geometry":{"type":"Point","coordinates":[166.7682,-22.5171]}},{"type":"Feature","properties":{"nom":"Nouméa","rank":4,"dept":"988"},"geometry":{"type":"Point","coordinates":[166.4076,-22.3363]}},{"type":"Feature","properties":{"nom":"Païta","rank":4,"dept":"988"},"geometry":{"type":"Point","coordinates":[166.277,-22.0651]}}]}